CCSDS_OMM_VERS = 2.0
CREATION_DATE  = 
ORIGINATOR     = 

OBJECT_NAME    = STARLINK-36056
OBJECT_ID      = 2025-304Q
CENTER_NAME    = EARTH
REF_FRAME      = TEME
TIME_SYSTEM    = UTC
MEAN_ELEMENT_THEORY = SGP/SGP4

EPOCH          = 2026-01-14T14:00:01.999872
MEAN_MOTION    = 15.46100475
ECCENTRICITY   = .00027083
INCLINATION    = 70.0004
RA_OF_ASC_NODE = 315.6746
ARG_OF_PERICENTER = 265.6628
MEAN_ANOMALY   = 324.8369

EPHEMERIS_TYPE = 0
CLASSIFICATION_TYPE = U
NORAD_CAT_ID   = 67206
ELEMENT_SET_NO = 999
REV_AT_EPOCH   = 571
BSTAR          = -.92767294E-1
MEAN_MOTION_DOT = -.3961413E-1
MEAN_MOTION_DDOT = 0

CCSDS_OMM_VERS = 2.0
CREATION_DATE  = 
ORIGINATOR     = 

OBJECT_NAME    = STARLINK-36225
OBJECT_ID      = 2025-304R
CENTER_NAME    = EARTH
REF_FRAME      = TEME
TIME_SYSTEM    = UTC
MEAN_ELEMENT_THEORY = SGP/SGP4

EPOCH          = 2026-01-14T06:43:19.077024
MEAN_MOTION    = 15.52217682
ECCENTRICITY   = .00029218
INCLINATION    = 70.0004
RA_OF_ASC_NODE = 316.4781
ARG_OF_PERICENTER = 294.7758
MEAN_ANOMALY   = 65.3125

EPHEMERIS_TYPE = 0
CLASSIFICATION_TYPE = U
NORAD_CAT_ID   = 67207
ELEMENT_SET_NO = 999
REV_AT_EPOCH   = 561
BSTAR          = -.26192985E-2
MEAN_MOTION_DOT = -.15647E-2
MEAN_MOTION_DDOT = 0

CCSDS_OMM_VERS = 2.0
CREATION_DATE  = 
ORIGINATOR     = 

OBJECT_NAME    = STARLINK-36265
OBJECT_ID      = 2025-304S
CENTER_NAME    = EARTH
REF_FRAME      = TEME
TIME_SYSTEM    = UTC
MEAN_ELEMENT_THEORY = SGP/SGP4

EPOCH          = 2026-01-14T13:55:11.160192
MEAN_MOTION    = 15.42733115
ECCENTRICITY   = .00032699
INCLINATION    = 70.0002
RA_OF_ASC_NODE = 315.9262
ARG_OF_PERICENTER = 265.1399
MEAN_ANOMALY   = 94.9410

EPHEMERIS_TYPE = 0
CLASSIFICATION_TYPE = U
NORAD_CAT_ID   = 67208
ELEMENT_SET_NO = 999
REV_AT_EPOCH   = 565
BSTAR          = .6113915E-3
MEAN_MOTION_DOT = .26738E-3
MEAN_MOTION_DDOT = 0

CCSDS_OMM_VERS = 2.0
CREATION_DATE  = 
ORIGINATOR     = 

OBJECT_NAME    = STARLINK-36226
OBJECT_ID      = 2025-304T
CENTER_NAME    = EARTH
REF_FRAME      = TEME
TIME_SYSTEM    = UTC
MEAN_ELEMENT_THEORY = SGP/SGP4

EPOCH          = 2026-01-14T13:43:30.687744
MEAN_MOTION    = 15.42729623
ECCENTRICITY   = .00034744
INCLINATION    = 70.0004
RA_OF_ASC_NODE = 315.8961
ARG_OF_PERICENTER = 265.0639
MEAN_ANOMALY   = 95.0146

EPHEMERIS_TYPE = 0
CLASSIFICATION_TYPE = U
NORAD_CAT_ID   = 67209
ELEMENT_SET_NO = 999
REV_AT_EPOCH   = 565
BSTAR          = .61279803E-3
MEAN_MOTION_DOT = .26797E-3
MEAN_MOTION_DDOT = 0

CCSDS_OMM_VERS = 2.0
CREATION_DATE  = 
ORIGINATOR     = 

OBJECT_NAME    = STARLINK-36173
OBJECT_ID      = 2025-304U
CENTER_NAME    = EARTH
REF_FRAME      = TEME
TIME_SYSTEM    = UTC
MEAN_ELEMENT_THEORY = SGP/SGP4

EPOCH          = 2026-01-14T14:00:01.999872
MEAN_MOTION    = 15.42699039
ECCENTRICITY   = .00027669
INCLINATION    = 70.0005
RA_OF_ASC_NODE = 315.8128
ARG_OF_PERICENTER = 268.0198
MEAN_ANOMALY   = 201.7579

EPHEMERIS_TYPE = 0
CLASSIFICATION_TYPE = U
NORAD_CAT_ID   = 67210
ELEMENT_SET_NO = 999
REV_AT_EPOCH   = 574
BSTAR          = .70113297E-3
MEAN_MOTION_DOT = .30663E-3
MEAN_MOTION_DDOT = 0

CCSDS_OMM_VERS = 2.0
CREATION_DATE  = 
ORIGINATOR     = 

OBJECT_NAME    = STARLINK-36280
OBJECT_ID      = 2025-304V
CENTER_NAME    = EARTH
REF_FRAME      = TEME
TIME_SYSTEM    = UTC
MEAN_ELEMENT_THEORY = SGP/SGP4

EPOCH          = 2026-01-14T14:00:01.999872
MEAN_MOTION    = 15.42701179
ECCENTRICITY   = .00029626
INCLINATION    = 70.0003
RA_OF_ASC_NODE = 315.7875
ARG_OF_PERICENTER = 267.1728
MEAN_ANOMALY   = 224.6007

EPHEMERIS_TYPE = 0
CLASSIFICATION_TYPE = U
NORAD_CAT_ID   = 67211
ELEMENT_SET_NO = 999
REV_AT_EPOCH   = 574
BSTAR          = .68963187E-3
MEAN_MOTION_DOT = .30158E-3
MEAN_MOTION_DDOT = 0

CCSDS_OMM_VERS = 2.0
CREATION_DATE  = 
ORIGINATOR     = 

OBJECT_NAME    = STARLINK-36213
OBJECT_ID      = 2025-304W
CENTER_NAME    = EARTH
REF_FRAME      = TEME
TIME_SYSTEM    = UTC
MEAN_ELEMENT_THEORY = SGP/SGP4

EPOCH          = 2026-01-14T14:00:01.999872
MEAN_MOTION    = 15.42701901
ECCENTRICITY   = .0003147
INCLINATION    = 70.0002
RA_OF_ASC_NODE = 315.7624
ARG_OF_PERICENTER = 269.1318
MEAN_ANOMALY   = 244.6515

EPHEMERIS_TYPE = 0
CLASSIFICATION_TYPE = U
NORAD_CAT_ID   = 67212
ELEMENT_SET_NO = 999
REV_AT_EPOCH   = 574
BSTAR          = .6536815E-3
MEAN_MOTION_DOT = .28574E-3
MEAN_MOTION_DDOT = 0

CCSDS_OMM_VERS = 2.0
CREATION_DATE  = 
ORIGINATOR     = 

OBJECT_NAME    = STARLINK-36199
OBJECT_ID      = 2025-304X
CENTER_NAME    = EARTH
REF_FRAME      = TEME
TIME_SYSTEM    = UTC
MEAN_ELEMENT_THEORY = SGP/SGP4

EPOCH          = 2026-01-14T14:00:01.999872
MEAN_MOTION    = 15.42703049
ECCENTRICITY   = .00033541
INCLINATION    = 70.0002
RA_OF_ASC_NODE = 315.7107
ARG_OF_PERICENTER = 268.6460
MEAN_ANOMALY   = 290.1326

EPHEMERIS_TYPE = 0
CLASSIFICATION_TYPE = U
NORAD_CAT_ID   = 67213
ELEMENT_SET_NO = 999
REV_AT_EPOCH   = 574
BSTAR          = .59811436E-3
MEAN_MOTION_DOT = .26126E-3
MEAN_MOTION_DDOT = 0

CCSDS_OMM_VERS = 2.0
CREATION_DATE  = 
ORIGINATOR     = 

OBJECT_NAME    = STARLINK-36203
OBJECT_ID      = 2025-304Y
CENTER_NAME    = EARTH
REF_FRAME      = TEME
TIME_SYSTEM    = UTC
MEAN_ELEMENT_THEORY = SGP/SGP4

EPOCH          = 2026-01-14T14:00:01.999872
MEAN_MOTION    = 15.42655396
ECCENTRICITY   = .00030301
INCLINATION    = 70.0007
RA_OF_ASC_NODE = 315.6838
ARG_OF_PERICENTER = 277.7358
MEAN_ANOMALY   = 304.0138

EPHEMERIS_TYPE = 0
CLASSIFICATION_TYPE = U
NORAD_CAT_ID   = 67214
ELEMENT_SET_NO = 999
REV_AT_EPOCH   = 574
BSTAR          = .10612155E-2
MEAN_MOTION_DOT = .46516E-3
MEAN_MOTION_DDOT = 0

CCSDS_OMM_VERS = 2.0
CREATION_DATE  = 
ORIGINATOR     = 

OBJECT_NAME    = STARLINK-36221
OBJECT_ID      = 2025-304Z
CENTER_NAME    = EARTH
REF_FRAME      = TEME
TIME_SYSTEM    = UTC
MEAN_ELEMENT_THEORY = SGP/SGP4

EPOCH          = 2026-01-14T14:00:01.999872
MEAN_MOTION    = 15.44240341
ECCENTRICITY   = .00029498
INCLINATION    = 70.0007
RA_OF_ASC_NODE = 315.6589
ARG_OF_PERICENTER = 284.7023
MEAN_ANOMALY   = 318.2225

EPHEMERIS_TYPE = 0
CLASSIFICATION_TYPE = U
NORAD_CAT_ID   = 67215
ELEMENT_SET_NO = 999
REV_AT_EPOCH   = 574
BSTAR          = -.49521861E-1
MEAN_MOTION_DOT = -.2033339E-1
MEAN_MOTION_DDOT = 0

CCSDS_OMM_VERS = 2.0
CREATION_DATE  = 
ORIGINATOR     = 

OBJECT_NAME    = STARLINK-36212
OBJECT_ID      = 2025-304AA
CENTER_NAME    = EARTH
REF_FRAME      = TEME
TIME_SYSTEM    = UTC
MEAN_ELEMENT_THEORY = SGP/SGP4

EPOCH          = 2026-01-14T14:00:01.999872
MEAN_MOTION    = 15.46903494
ECCENTRICITY   = .0002726
INCLINATION    = 70.0000
RA_OF_ASC_NODE = 315.6356
ARG_OF_PERICENTER = 266.3166
MEAN_ANOMALY   = 353.4320

EPHEMERIS_TYPE = 0
CLASSIFICATION_TYPE = U
NORAD_CAT_ID   = 67216
ELEMENT_SET_NO = 999
REV_AT_EPOCH   = 574
BSTAR          = -.43516019E-1
MEAN_MOTION_DOT = -.1966171E-1
MEAN_MOTION_DDOT = 0

CCSDS_OMM_VERS = 2.0
CREATION_DATE  = 
ORIGINATOR     = 

OBJECT_NAME    = STARLINK-36216
OBJECT_ID      = 2025-304AB
CENTER_NAME    = EARTH
REF_FRAME      = TEME
TIME_SYSTEM    = UTC
MEAN_ELEMENT_THEORY = SGP/SGP4

EPOCH          = 2026-01-14T09:44:22.740000
MEAN_MOTION    = 15.50993550
ECCENTRICITY   = .0004927
INCLINATION    = 70.0005
RA_OF_ASC_NODE = 316.1122
ARG_OF_PERICENTER = 271.6341
MEAN_ANOMALY   = 88.4280

EPHEMERIS_TYPE = 0
CLASSIFICATION_TYPE = U
NORAD_CAT_ID   = 67217
ELEMENT_SET_NO = 999
REV_AT_EPOCH   = 563
BSTAR          = -.32631624E-2
MEAN_MOTION_DOT = -.185954E-2
MEAN_MOTION_DDOT = 0

CCSDS_OMM_VERS = 2.0
CREATION_DATE  = 
ORIGINATOR     = 

OBJECT_NAME    = STARLINK-36211
OBJECT_ID      = 2025-304AC
CENTER_NAME    = EARTH
REF_FRAME      = TEME
TIME_SYSTEM    = UTC
MEAN_ELEMENT_THEORY = SGP/SGP4

EPOCH          = 2026-01-14T14:21:43.913952
MEAN_MOTION    = 15.52453223
ECCENTRICITY   = .00038673
INCLINATION    = 70.0004
RA_OF_ASC_NODE = 315.5801
ARG_OF_PERICENTER = 254.7648
MEAN_ANOMALY   = 105.3111

EPHEMERIS_TYPE = 0
CLASSIFICATION_TYPE = U
NORAD_CAT_ID   = 67218
ELEMENT_SET_NO = 999
REV_AT_EPOCH   = 563
BSTAR          = -.25807808E-4
MEAN_MOTION_DOT = -.1751E-4
MEAN_MOTION_DDOT = 0

CCSDS_OMM_VERS = 2.0
CREATION_DATE  = 
ORIGINATOR     = 

OBJECT_NAME    = DISKSAT C
OBJECT_ID      = 2025-305A
CENTER_NAME    = EARTH
REF_FRAME      = TEME
TIME_SYSTEM    = UTC
MEAN_ELEMENT_THEORY = SGP/SGP4

EPOCH          = 2026-01-14T07:41:24.510048
MEAN_MOTION    = 15.06397839
ECCENTRICITY   = .00018812
INCLINATION    = 45.0015
RA_OF_ASC_NODE = 178.3507
ARG_OF_PERICENTER = 24.4521
MEAN_ANOMALY   = 335.6442

EPHEMERIS_TYPE = 0
CLASSIFICATION_TYPE = U
NORAD_CAT_ID   = 67219
ELEMENT_SET_NO = 999
REV_AT_EPOCH   = 409
BSTAR          = .46023487E-3
MEAN_MOTION_DOT = .6654E-4
MEAN_MOTION_DDOT = 0

CCSDS_OMM_VERS = 2.0
CREATION_DATE  = 
ORIGINATOR     = 

OBJECT_NAME    = DISKSAT B
OBJECT_ID      = 2025-305B
CENTER_NAME    = EARTH
REF_FRAME      = TEME
TIME_SYSTEM    = UTC
MEAN_ELEMENT_THEORY = SGP/SGP4

EPOCH          = 2026-01-13T20:34:15.509280
MEAN_MOTION    = 15.06322570
ECCENTRICITY   = .00016371
INCLINATION    = 45.0014
RA_OF_ASC_NODE = 180.8091
ARG_OF_PERICENTER = 26.4540
MEAN_ANOMALY   = 333.6418

EPHEMERIS_TYPE = 0
CLASSIFICATION_TYPE = U
NORAD_CAT_ID   = 67220
ELEMENT_SET_NO = 999
REV_AT_EPOCH   = 402
BSTAR          = .44967028E-3
MEAN_MOTION_DOT = .6482E-4
MEAN_MOTION_DDOT = 0

